HULIANWANG DIGUI-150    
1 67526U 26013E   26025.15851686 -.00000115  00000+0  23740-4 0  9990
2 67526  50.0096 161.6201 0010015 258.6345 101.3432 13.98253437   846
HULIANWANG DIGUI-151    
1 67527U 26013F   26021.15608316 -.00000614  00000+0 -32354-3 0  9992
2 67527  50.0035 177.7600 0009841 238.6748 121.3191 13.98327198   267
HULIANWANG DIGUI-152    
1 67528U 26013G   26024.08719212 -.00000118  00000+0  21603-4 0  9990
2 67528  50.0047 165.9375 0009745 257.1222 102.8592 13.97836723   677
HULIANWANG DIGUI-153    
1 67529U 26013H   26021.44172990 -.00000104  00000+0  31747-4 0  9999
2 67529  50.0011 176.6007 0008856 242.1618 117.8387 13.98470310   298
HULIANWANG DIGUI-154    
1 67530U 26013J   26021.22721932 -.00000008  00000+0  98151-4 0  9998
2 67530  50.0045 177.4718 0008317 246.2151 113.7880 13.98568419   262
CZ-12 R/B               
1 67531U 26013K   26026.71710039  .00000170  00000+0  16514-3 0  9995
2 67531  49.9902 154.5543 0069062 153.3200 207.1288 14.14452883  1044
2026-015A               
1 67556U 26015A   26027.51083396  .00000229  00000+0  32659-3 0  9995
2 67556  88.9998 282.8443 0004783 112.5853 247.5806 13.52685164   698
2026-015B               
1 67557U 26015B   26027.43695106  .00000113  00000+0  15288-3 0  9996
2 67557  88.9998 282.8521 0004878 111.9888 248.1783 13.52660397   683
ELECTRON R/B            
1 67558U 26015C   26027.13775428  .00993959 -44025-6  12162-2 0  9999
2 67558  89.0043 282.7507 0614979 253.4300  99.8559 14.87019417   705
ELECTRON KICK STAGE R/B 
1 67559U 26015D   26027.26295108  .00083994  53514-6  14310-2 0  9994
2 67559  89.0538 282.7758 0539389 319.0400  37.1439 14.65692298   717
